     2.100          NAVIGATION                              RINEX VERSION / TYPE
fic2rin                                 03/31/2013 00:15:02 PGM / RUN BY / DATE
                                                            END OF HEADER
29 13  3 30 15 59 44.0  .421748496592D-03  .363797880709D-11  .000000000000D+00
     .100000000000D+01  .256250000000D+02  .468269505304D-08 -.588935142530D+00
     .136531889439D-05  .197108183056D-02  .629387795925D-05  .515366582108D+04
     .575984000000D+06 -.119209289551D-06 -.133956400174D+01  .335276126862D-07
     .965231462999D+00  .261843750000D+03 -.108040292623D+01 -.813998192006D-08
     .463233581252D-09  .100000000000D+01  .173300000000D+04  .000000000000D+00
     .240000000000D+01  .000000000000D+00 -.977888703346D-08  .100000000000D+01
     .575796000000D+06  .400000000000D+01
 3 13  3 30 17 59 44.0  .187662895769D-03  .511590769747D-11  .000000000000D+00
     .500000000000D+02  .322500000000D+02  .514807158070D-08  .267195384151D+01
     .158138573170D-05  .160456098383D-01  .726245343685D-05  .515368042564D+04
     .583184000000D+06  .158324837685D-06 -.152914474645D+01 -.391155481339D-07
     .933564319021D+00  .222375000000D+03  .127722322826D+01 -.811248077453D-08
     .544665544649D-09  .100000000000D+01  .173300000000D+04  .000000000000D+00
     .240000000000D+01  .000000000000D+00 -.465661287308D-08  .500000000000D+02
     .576006000000D+06  .400000000000D+01
29 13  3 30 17 59 44.0  .421774573624D-03  .363797880709D-11  .000000000000D+00
     .190000000000D+02  .170000000000D+02  .467233747875D-08  .461301707776D+00
     .853091478348D-06  .197268987540D-02  .670552253723D-05  .515366887665D+04
     .583184000000D+06 -.204890966415D-07 -.133962226391D+01 -.502914190292D-07
     .965234290820D+00  .254375000000D+03 -.108045413275D+01 -.817534053575D-08
     .370372570361D-09  .100000000000D+01  .173300000000D+04  .000000000000D+00
     .240000000000D+01  .000000000000D+00 -.977888703346D-08  .190000000000D+02
     .576006000000D+06  .400000000000D+01
 1 13  3 30 18  0  0.0  .118063762784D-04  .329691829393D-11  .000000000000D+00
     .400000000000D+02 -.369687500000D+02  .477341311753D-08  .168516104337D+01
    -.203214585781D-05  .170384428930D-02  .728666782379D-05  .515369645500D+04
     .583200000000D+06  .130385160446D-07 -.339581652687D+00  .521540641785D-07
     .960437680873D+00  .236218750000D+03  .326225408118D+00 -.815248244076D-08
    -.393587823084D-09  .100000000000D+01  .173300000000D+04  .000000000000D+00
     .240000000000D+01  .000000000000D+00  .838190317154D-08  .400000000000D+02
     .576006000000D+06  .400000000000D+01
 2 13  3 30 18  0  0.0  .424830708653D-03  .193267624127D-11  .000000000000D+00
     .870000000000D+02 -.405625000000D+02  .517878714584D-08  .250326794110D+01
    -.204704701900D-05  .122096199775D-01  .712461769581D-05  .515362784195D+04
     .583200000000D+06 -.195577740669D-06 -.359954467834D+00 -.180676579475D-06
     .938936925166D+00  .229250000000D+03 -.263352065314D+01 -.827177312398D-08
    -.306441335940D-09  .100000000000D+01  .173300000000D+04  .000000000000D+00
     .340000000000D+01  .000000000000D+00 -.176951289177D-07  .870000000000D+02
     .576006000000D+06  .400000000000D+01
 4 13  3 30 18  0  0.0  .176283996552D-03  .109139364213D-10  .000000000000D+00
     .109000000000D+03 -.356875000000D+02  .531736434671D-08 -.547578158771D+00
    -.161491334438D-05  .103306128876D-01  .720471143723D-05  .515376287842D+04
     .583200000000D+06  .186264514923D-07 -.343442929868D+00  .137835741043D-06
     .937985405211D+00  .229125000000D+03  .967170322457D+00 -.858464329914D-08
    -.311798701953D-09  .100000000000D+01  .173300000000D+04  .000000000000D+00
     .240000000000D+01  .000000000000D+00 -.605359673500D-08  .109000000000D+03
     .576006000000D+06  .400000000000D+01
 5 13  3 30 18  0  0.0 -.389856752008D-03 -.136424205266D-11  .000000000000D+00
     .400000000000D+02  .619062500000D+02  .455733268834D-08 -.165348398080D+01
     .299327075481D-05  .305616878904D-02  .123195350170D-04  .515359366798D+04
     .583200000000D+06 -.335276126862D-07  .704494498486D+00 -.633299350739D-07
     .949369171002D+00  .132781250000D+03  .301898486324D+00 -.797533220460D-08
    -.803604901941D-10  .100000000000D+01  .173300000000D+04  .000000000000D+00
     .240000000000D+01  .000000000000D+00 -.102445483208D-07  .400000000000D+02
     .576006000000D+06  .400000000000D+01
 6 13  3 30 18  0  0.0  .293871853501D-03 -.153477230924D-10  .000000000000D+00
     .620000000000D+02  .299687500000D+02  .514950021164D-08 -.173961122878D+01
     .154972076416D-05  .792130536865D-02  .713765621185D-05  .515367592430D+04
     .583200000000D+06 -.108033418655D-06 -.145007680966D+01  .353902578354D-07
     .940215784744D+00  .234687500000D+03 -.361516143124D+00 -.838249202158D-08
     .621811615235D-09  .100000000000D+01  .173300000000D+04  .000000000000D+00
     .240000000000D+01  .000000000000D+00 -.512227416039D-08  .620000000000D+02
     .576006000000D+06  .400000000000D+01
 7 13  3 30 18  0  0.0  .197111163288D-03  .432009983342D-11  .000000000000D+00
     .990000000000D+02 -.948750000000D+02  .449304429619D-08  .111629989010D+01
    -.474229454994D-05  .616200023796D-02  .389292836189D-05  .515370135498D+04
     .583200000000D+06  .223517417908D-07  .282110770676D+01  .800937414169D-07
     .975701086392D+00  .310812500000D+03 -.293370755750D+01 -.837499170916D-08
    -.495020619596D-09  .100000000000D+01  .173300000000D+04  .000000000000D+00
     .240000000000D+01  .000000000000D+00 -.107102096081D-07  .990000000000D+02
     .576006000000D+06  .400000000000D+01
 8 13  3 30 18  0  0.0  .540120527148D-05  .227373675443D-12  .000000000000D+00
     .740000000000D+02 -.970312500000D+02  .389373361821D-08  .567273890080D+00
    -.504031777382D-05  .127874107566D-01  .487267971039D-05  .515359198952D+04
     .583200000000D+06  .949949026108D-07  .291105777473D+01  .186264514923D-06
     .998403864831D+00  .301343750000D+03 -.287745154308D+01 -.812176687562D-08
    -.519664503255D-09  .100000000000D+01  .173300000000D+04  .000000000000D+00
     .340000000000D+01  .000000000000D+00 -.419095158577D-08  .740000000000D+02
     .576006000000D+06  .400000000000D+01
 9 13  3 30 18  0  0.0  .230547040701D-03  .261479726760D-11  .000000000000D+00
     .133000000000D+03 -.848125000000D+02  .416517349619D-08  .143888517621D+01
    -.495463609695D-05  .172532420838D-01  .379607081413D-05  .515280547523D+04
     .583200000000D+06  .484287738800D-07  .279750349722D+01 -.357627868652D-06
     .984334885110D+00  .319437500000D+03  .164290370229D+01 -.817926927082D-08
    -.389301930274D-09  .100000000000D+01  .173300000000D+04  .000000000000D+00
     .240000000000D+01  .000000000000D+00 -.558793544769D-08  .133000000000D+03
     .576006000000D+06  .400000000000D+01
10 13  3 30 18  0  0.0 -.750753097236D-04 -.125055521494D-11  .000000000000D+00
     .186000000000D+03  .743437500000D+02  .468198073758D-08 -.137868160317D+01
     .385567545891D-05  .123408747604D-01  .120457261801D-04  .515362614059D+04
     .583200000000D+06  .270083546638D-06  .724255606142D+00 -.409781932831D-07
     .944192290130D+00  .133406250000D+03  .797653544558D+00 -.798747556756D-08
    -.689314426998D-10  .100000000000D+01  .173300000000D+04  .000000000000D+00
     .340000000000D+01  .000000000000D+00 -.232830643654D-08  .186000000000D+03
     .576006000000D+06  .400000000000D+01
11 13  3 30 18  0  0.0 -.367528758943D-03 -.375166564481D-11  .000000000000D+00
     .690000000000D+02 -.338125000000D+02  .669742183164D-08  .131894021714D+01
    -.187754631042D-05  .138803318841D-01  .519677996635D-05  .515367660522D+04
     .583200000000D+06 -.290572643280D-06 -.632185477291D+00 -.596046447754D-07
     .888776438340D+00  .242843750000D+03  .115378197544D+01 -.933181727908D-08
    -.228223792151D-09  .100000000000D+01  .173300000000D+04  .000000000000D+00
     .240000000000D+01  .000000000000D+00 -.116415321827D-07  .690000000000D+02
     .576006000000D+06  .400000000000D+01
12 13  3 30 18  0  0.0  .125692225993D-03  .204636307899D-11  .000000000000D+00
     .490000000000D+02 -.549062500000D+02  .378301472060D-08  .834778023970D+00
    -.284053385258D-05  .443850131705D-02  .110138207674D-04  .515360294533D+04
     .583200000000D+06  .335276126862D-07 -.240428853355D+01  .111758708954D-06
     .983584928935D+00  .178250000000D+03  .189256076372D+00 -.764103256539D-08
     .967897459671D-10  .100000000000D+01  .173300000000D+04  .000000000000D+00
     .240000000000D+01  .000000000000D+00 -.121071934700D-07  .490000000000D+02
     .576006000000D+06  .400000000000D+01
13 13  3 30 18  0  0.0  .133212190121D-03 -.352429196937D-11  .000000000000D+00
     .790000000000D+02  .947500000000D+02  .447054335893D-08 -.269190359392D+01
     .498630106449D-05  .512924010400D-02  .292062759399D-05  .515377583504D+04
     .583200000000D+06  .111758708954D-07  .185332381890D+01  .484287738800D-07
     .981865665183D+00  .335781250000D+03  .206801502579D+01 -.823784313923D-08
     .300369654459D-09  .100000000000D+01  .173300000000D+04  .000000000000D+00
     .340000000000D+01  .000000000000D+00 -.111758708954D-07  .790000000000D+02
     .576006000000D+06  .400000000000D+01
14 13  3 30 18  0  0.0  .221058260649D-03  .000000000000D+00  .000000000000D+00
     .490000000000D+02  .830000000000D+02  .452625996547D-08 -.257885037755D+01
     .441819429398D-05  .672046770342D-02  .322051346302D-05  .515372561264D+04
     .583200000000D+06  .149011611938D-06  .182446558150D+01  .149011611938D-07
     .974569403687D+00  .324187500000D+03 -.202624359002D+01 -.820069873488D-08
     .228223792151D-09  .100000000000D+01  .173300000000D+04  .000000000000D+00
     .240000000000D+01  .000000000000D+00 -.884756445885D-08  .490000000000D+02
     .576006000000D+06  .400000000000D+01
